STARLINK-4629           
1 53968U 22125E   25289.35502343  .00000968  00000+0  78920-4 0  9996
2 53968  53.2150 151.9837 0001552  90.3085 269.8085 15.08840028167537
STARLINK-4468           
1 53969U 22125F   25289.36236920  .00003158  00000+0  21630-3 0  9992
2 53969  53.2154 152.0287 0001584  88.6277 271.4896 15.08862867167535
STARLINK-4567           
1 53970U 22125G   25289.29845814  .00000374  00000+0  41593-4 0  9992
2 53970  53.2160 147.3602 0001584  90.2377 269.8796 15.08836481167603
STARLINK-4639           
1 53971U 22125H   25290.13611258  .00109921  00000+0  21513-2 0  9997
2 53971  53.2143 121.0037 0003081 167.8193 192.2891 15.46581204168043
STARLINK-5156           
1 53973U 22125K   25289.02013446  .00001493  00000+0  11186-3 0  9991
2 53973  53.2147 153.4467 0001385  84.5871 275.5280 15.08844261167485
STARLINK-5159           
1 53974U 22125L   25290.18114828 -.00000129  00000+0  99890-5 0  9993
2 53974  53.2154 127.9579 0001347  92.9505 267.1641 15.08833711167946
STARLINK-5137           
1 53975U 22125M   25290.18160220  .00000600  00000+0  55788-4 0  9991
2 53975  53.2145 142.9289 0001400  84.5268 275.5884 15.08840852167738
STARLINK-5134           
1 53976U 22125N   25290.16280737  .00000160  00000+0  28142-4 0  9991
2 53976  53.2154 128.5538 0001397  85.3989 274.7162 15.08840943167933
STARLINK-5094           
1 53977U 22125P   25290.10071139  .00001545  00000+0  11517-3 0  9995
2 53977  53.2149 143.8291 0001388  93.5473 266.5678 15.08838129167713
STARLINK-5148           
1 53978U 22125Q   25288.88994566  .00003149  00000+0  21579-3 0  9997
2 53978  53.2135 149.0679 0001502  87.2139 272.9025 15.08855420167534
STARLINK-5123           
1 53979U 22125R   25289.02981352  .00003948  00000+0  26602-3 0  9993
2 53979  53.2156 148.5206 0001518  95.1584 264.9582 15.08832840167559
STARLINK-5133           
1 53980U 22125S   25290.13009986  .00000781  00000+0  67155-4 0  9994
2 53980  53.2156 143.3046 0001364  88.5104 271.6044 15.08840501167729
STARLINK-5149           
1 53981U 22125T   25290.06340992  .00000502  00000+0  49642-4 0  9994
2 53981  53.2142 128.6599 0001319  92.0201 268.0942 15.08835511167926
STARLINK-5120           
1 53982U 22125U   25290.15820218  .00000507  00000+0  49945-4 0  9990
2 53982  53.2148 138.4963 0001335  95.5868 264.5276 15.08836354167783
STARLINK-5103           
1 53983U 22125V   25290.13701038  .00001223  00000+0  94918-4 0  9993
2 53983  53.2151 128.3892 0001323  88.4753 271.6391 15.08841301167930
STARLINK-5142           
1 53984U 22125W   25290.16925240  .00001618  00000+0  11972-3 0  9996
2 53984  53.2146 138.5629 0001309  89.2037 270.9105 15.08841800167797
STARLINK-5147           
1 53985U 22125X   25290.17662069  .00000462  00000+0  47138-4 0  9995
2 53985  53.2154 138.6090 0001350  87.5446 272.5700 15.08841029167793
