[{"OBJECT_NAME":"STARLINK-4629","OBJECT_ID":"2022-125E","EPOCH":"2025-10-16T08:31:14.024352","MEAN_MOTION":15.08840028,"ECCENTRICITY":0.0001552,"INCLINATION":53.215,"RA_OF_ASC_NODE":151.9837,"ARG_OF_PERICENTER":90.3085,"MEAN_ANOMALY":269.8085,"EPHEMERIS_TYPE":0,"CLASSIFICATION_TYPE":"U","NORAD_CAT_ID":53968,"ELEMENT_SET_NO":999,"REV_AT_EPOCH":16753,"BSTAR":7.892e-5,"MEAN_MOTION_DOT":9.68e-6,"MEAN_MOTION_DDOT":0},{"OBJECT_NAME":"STARLINK-4468","OBJECT_ID":"2022-125F","EPOCH":"2025-10-16T08:41:48.698880","MEAN_MOTION":15.08862867,"ECCENTRICITY":0.0001584,"INCLINATION":53.2154,"RA_OF_ASC_NODE":152.0287,"ARG_OF_PERICENTER":88.6277,"MEAN_ANOMALY":271.4896,"EPHEMERIS_TYPE":0,"CLASSIFICATION_TYPE":"U","NORAD_CAT_ID":53969,"ELEMENT_SET_NO":999,"REV_AT_EPOCH":16753,"BSTAR":0.0002163,"MEAN_MOTION_DOT":3.158e-5,"MEAN_MOTION_DDOT":0},{"OBJECT_NAME":"STARLINK-4567","OBJECT_ID":"2022-125G","EPOCH":"2025-10-16T07:09:46.783296","MEAN_MOTION":15.08836481,"ECCENTRICITY":0.0001584,"INCLINATION":53.216,"RA_OF_ASC_NODE":147.3602,"ARG_OF_PERICENTER":90.2377,"MEAN_ANOMALY":269.8796,"EPHEMERIS_TYPE":0,"CLASSIFICATION_TYPE":"U","NORAD_CAT_ID":53970,"ELEMENT_SET_NO":999,"REV_AT_EPOCH":16760,"BSTAR":4.1593e-5,"MEAN_MOTION_DOT":3.74e-6,"MEAN_MOTION_DDOT":0},{"OBJECT_NAME":"STARLINK-4639","OBJECT_ID":"2022-125H","EPOCH":"2025-10-17T03:16:00.126912","MEAN_MOTION":15.46581204,"ECCENTRICITY":0.0003081,"INCLINATION":53.2143,"RA_OF_ASC_NODE":121.0037,"ARG_OF_PERICENTER":167.8193,"MEAN_ANOMALY":192.2891,"EPHEMERIS_TYPE":0,"CLASSIFICATION_TYPE":"U","NORAD_CAT_ID":53971,"ELEMENT_SET_NO":999,"REV_AT_EPOCH":16804,"BSTAR":0.0021513,"MEAN_MOTION_DOT":0.00109921,"MEAN_MOTION_DDOT":0},{"OBJECT_NAME":"STARLINK-5156","OBJECT_ID":"2022-125K","EPOCH":"2025-10-16T00:28:59.617344","MEAN_MOTION":15.08844261,"ECCENTRICITY":0.0001385,"INCLINATION":53.2147,"RA_OF_ASC_NODE":153.4467,"ARG_OF_PERICENTER":84.5871,"MEAN_ANOMALY":275.528,"EPHEMERIS_TYPE":0,"CLASSIFICATION_TYPE":"U","NORAD_CAT_ID":53973,"ELEMENT_SET_NO":999,"REV_AT_EPOCH":16748,"BSTAR":0.00011185665,"MEAN_MOTION_DOT":1.493e-5,"MEAN_MOTION_DDOT":0},{"OBJECT_NAME":"STARLINK-5159","OBJECT_ID":"2022-125L","EPOCH":"2025-10-17T04:20:51.211392","MEAN_MOTION":15.08833711,"ECCENTRICITY":0.0001347,"INCLINATION":53.2154,"RA_OF_ASC_NODE":127.9579,"ARG_OF_PERICENTER":92.9505,"MEAN_ANOMALY":267.1641,"EPHEMERIS_TYPE":0,"CLASSIFICATION_TYPE":"U","NORAD_CAT_ID":53974,"ELEMENT_SET_NO":999,"REV_AT_EPOCH":16794,"BSTAR":9.989e-6,"MEAN_MOTION_DOT":-1.29e-6,"MEAN_MOTION_DDOT":0},{"OBJECT_NAME":"STARLINK-5137","OBJECT_ID":"2022-125M","EPOCH":"2025-10-17T04:21:30.430080","MEAN_MOTION":15.08840852,"ECCENTRICITY":0.00014,"INCLINATION":53.2145,"RA_OF_ASC_NODE":142.9289,"ARG_OF_PERICENTER":84.5268,"MEAN_ANOMALY":275.5884,"EPHEMERIS_TYPE":0,"CLASSIFICATION_TYPE":"U","NORAD_CAT_ID":53975,"ELEMENT_SET_NO":999,"REV_AT_EPOCH":16773,"BSTAR":5.5788e-5,"MEAN_MOTION_DOT":6.0e-6,"MEAN_MOTION_DDOT":0},{"OBJECT_NAME":"STARLINK-5134","OBJECT_ID":"2022-125N","EPOCH":"2025-10-17T03:54:26.556768","MEAN_MOTION":15.08840943,"ECCENTRICITY":0.0001397,"INCLINATION":53.2154,"RA_OF_ASC_NODE":128.5538,"ARG_OF_PERICENTER":85.3989,"MEAN_ANOMALY":274.7162,"EPHEMERIS_TYPE":0,"CLASSIFICATION_TYPE":"U","NORAD_CAT_ID":53976,"ELEMENT_SET_NO":999,"REV_AT_EPOCH":16793,"BSTAR":2.8142e-5,"MEAN_MOTION_DOT":1.6e-6,"MEAN_MOTION_DDOT":0},{"OBJECT_NAME":"STARLINK-5094","OBJECT_ID":"2022-125P","EPOCH":"2025-10-17T02:25:01.464096","MEAN_MOTION":15.08838129,"ECCENTRICITY":0.0001388,"INCLINATION":53.2149,"RA_OF_ASC_NODE":143.8291,"ARG_OF_PERICENTER":93.5473,"MEAN_ANOMALY":266.5678,"EPHEMERIS_TYPE":0,"CLASSIFICATION_TYPE":"U","NORAD_CAT_ID":53977,"ELEMENT_SET_NO":999,"REV_AT_EPOCH":16771,"BSTAR":0.00011517,"MEAN_MOTION_DOT":1.545e-5,"MEAN_MOTION_DDOT":0},{"OBJECT_NAME":"STARLINK-5148","OBJECT_ID":"2022-125Q","EPOCH":"2025-10-15T21:21:31.305024","MEAN_MOTION":15.0885542,"ECCENTRICITY":0.00015026,"INCLINATION":53.2135,"RA_OF_ASC_NODE":149.0679,"ARG_OF_PERICENTER":87.2139,"MEAN_ANOMALY":272.9025,"EPHEMERIS_TYPE":0,"CLASSIFICATION_TYPE":"U","NORAD_CAT_ID":53978,"ELEMENT_SET_NO":999,"REV_AT_EPOCH":16753,"BSTAR":0.00021579078,"MEAN_MOTION_DOT":3.149e-5,"MEAN_MOTION_DDOT":0},{"OBJECT_NAME":"STARLINK-5123","OBJECT_ID":"2022-125R","EPOCH":"2025-10-16T00:42:55.888128","MEAN_MOTION":15.0883284,"ECCENTRICITY":0.00015184,"INCLINATION":53.2156,"RA_OF_ASC_NODE":148.5206,"ARG_OF_PERICENTER":95.1584,"MEAN_ANOMALY":264.9582,"EPHEMERIS_TYPE":0,"CLASSIFICATION_TYPE":"U","NORAD_CAT_ID":53979,"ELEMENT_SET_NO":999,"REV_AT_EPOCH":16755,"BSTAR":0.00026602366,"MEAN_MOTION_DOT":3.948e-5,"MEAN_MOTION_DDOT":0},{"OBJECT_NAME":"STARLINK-5133","OBJECT_ID":"2022-125S","EPOCH":"2025-10-17T03:07:20.627904","MEAN_MOTION":15.08840501,"ECCENTRICITY":0.0001364,"INCLINATION":53.2156,"RA_OF_ASC_NODE":143.3046,"ARG_OF_PERICENTER":88.5104,"MEAN_ANOMALY":271.6044,"EPHEMERIS_TYPE":0,"CLASSIFICATION_TYPE":"U","NORAD_CAT_ID":53980,"ELEMENT_SET_NO":999,"REV_AT_EPOCH":16772,"BSTAR":6.7155e-5,"MEAN_MOTION_DOT":7.81e-6,"MEAN_MOTION_DDOT":0},{"OBJECT_NAME":"STARLINK-5149","OBJECT_ID":"2022-125T","EPOCH":"2025-10-17T01:31:18.617088","MEAN_MOTION":15.08835511,"ECCENTRICITY":0.0001319,"INCLINATION":53.2142,"RA_OF_ASC_NODE":128.6599,"ARG_OF_PERICENTER":92.0201,"MEAN_ANOMALY":268.0942,"EPHEMERIS_TYPE":0,"CLASSIFICATION_TYPE":"U","NORAD_CAT_ID":53981,"ELEMENT_SET_NO":999,"REV_AT_EPOCH":16792,"BSTAR":4.9642e-5,"MEAN_MOTION_DOT":5.02e-6,"MEAN_MOTION_DDOT":0},{"OBJECT_NAME":"STARLINK-5120","OBJECT_ID":"2022-125U","EPOCH":"2025-10-17T03:47:48.668352","MEAN_MOTION":15.08836354,"ECCENTRICITY":0.0001335,"INCLINATION":53.2148,"RA_OF_ASC_NODE":138.4963,"ARG_OF_PERICENTER":95.5868,"MEAN_ANOMALY":264.5276,"EPHEMERIS_TYPE":0,"CLASSIFICATION_TYPE":"U","NORAD_CAT_ID":53982,"ELEMENT_SET_NO":999,"REV_AT_EPOCH":16778,"BSTAR":4.9945e-5,"MEAN_MOTION_DOT":5.07e-6,"MEAN_MOTION_DDOT":0},{"OBJECT_NAME":"STARLINK-5103","OBJECT_ID":"2022-125V","EPOCH":"2025-10-17T03:17:17.696832","MEAN_MOTION":15.08841301,"ECCENTRICITY":0.0001323,"INCLINATION":53.2151,"RA_OF_ASC_NODE":128.3892,"ARG_OF_PERICENTER":88.4753,"MEAN_ANOMALY":271.6391,"EPHEMERIS_TYPE":0,"CLASSIFICATION_TYPE":"U","NORAD_CAT_ID":53983,"ELEMENT_SET_NO":999,"REV_AT_EPOCH":16793,"BSTAR":9.4918e-5,"MEAN_MOTION_DOT":1.223e-5,"MEAN_MOTION_DDOT":0},{"OBJECT_NAME":"STARLINK-5142","OBJECT_ID":"2022-125W","EPOCH":"2025-10-17T04:03:43.407360","MEAN_MOTION":15.088418,"ECCENTRICITY":0.0001309,"INCLINATION":53.2146,"RA_OF_ASC_NODE":138.5629,"ARG_OF_PERICENTER":89.2037,"MEAN_ANOMALY":270.9105,"EPHEMERIS_TYPE":0,"CLASSIFICATION_TYPE":"U","NORAD_CAT_ID":53984,"ELEMENT_SET_NO":999,"REV_AT_EPOCH":16779,"BSTAR":0.00011972,"MEAN_MOTION_DOT":1.618e-5,"MEAN_MOTION_DDOT":0},{"OBJECT_NAME":"STARLINK-5147","OBJECT_ID":"2022-125X","EPOCH":"2025-10-17T04:14:20.027616","MEAN_MOTION":15.08841029,"ECCENTRICITY":0.000135,"INCLINATION":53.2154,"RA_OF_ASC_NODE":138.609,"ARG_OF_PERICENTER":87.5446,"MEAN_ANOMALY":272.57,"EPHEMERIS_TYPE":0,"CLASSIFICATION_TYPE":"U","NORAD_CAT_ID":53985,"ELEMENT_SET_NO":999,"REV_AT_EPOCH":16779,"BSTAR":4.7138e-5,"MEAN_MOTION_DOT":4.62e-6,"MEAN_MOTION_DDOT":0}]
